{
    "links": {
        "self": "http://www.neowsapp.com/rest/v1/neo/3091694?api_key=iIulBulltgU6a56xZRHN4H3l9WmuAYTsLGpBGhQ2"
    },
    "id": "3091694",
    "neo_reference_id": "3091694",
    "name": "(2001 PJ)",
    "designation": "2001 PJ",
    "nasa_jpl_url": "http://ssd.jpl.nasa.gov/sbdb.cgi?sstr=3091694",
    "absolute_magnitude_h": 21.3,
    "estimated_diameter": {
        "kilometers": {
            "estimated_diameter_min": 0.1460679643,
            "estimated_diameter_max": 0.3266178974
        },
        "meters": {
            "estimated_diameter_min": 146.0679642714,
            "estimated_diameter_max": 326.6178974458
        },
        "miles": {
            "estimated_diameter_min": 0.090762397,
            "estimated_diameter_max": 0.2029508896
        },
        "feet": {
            "estimated_diameter_min": 479.2256199,
            "estimated_diameter_max": 1071.581062656
        }
    },
    "is_potentially_hazardous_asteroid": false,
    "close_approach_data": [
        {
            "close_approach_date": "1995-06-02",
            "close_approach_date_full": "1995-Jun-02 05:27",
            "epoch_date_close_approach": 802070820000,
            "relative_velocity": {
                "kilometers_per_second": "20.1575281758",
                "kilometers_per_hour": "72567.1014328674",
                "miles_per_hour": "45090.3747764392"
            },
            "miss_distance": {
                "astronomical": "0.4638631072",
                "lunar": "180.4427487008",
                "kilometers": "69392932.808701664",
                "miles": "43118769.0034404032"
            },
            "orbiting_body": "Earth"
        },
        {
            "close_approach_date": "1998-06-24",
            "close_approach_date_full": "1998-Jun-24 09:23",
            "epoch_date_close_approach": 898680180000,
            "relative_velocity": {
                "kilometers_per_second": "10.5276746688",
                "kilometers_per_hour": "37899.628807649",
                "miles_per_hour": "23549.3554666195"
            },
            "miss_distance": {
                "astronomical": "0.1394131041",
                "lunar": "54.2316974949",
                "kilometers": "20855903.423448267",
                "miles": "12959257.4585774046"
            },
            "orbiting_body": "Earth"
        },
        {
            "close_approach_date": "2001-08-20",
            "close_approach_date_full": "2001-Aug-20 01:45",
            "epoch_date_close_approach": 998271900000,
            "relative_velocity": {
                "kilometers_per_second": "8.7565877512",
                "kilometers_per_hour": "31523.7159041557",
                "miles_per_hour": "19587.6111405572"
            },
            "miss_distance": {
                "astronomical": "0.1429721177",
                "lunar": "55.6161537853",
                "kilometers": "21388324.277309299",
                "miles": "13290088.4363303662"
            },
            "orbiting_body": "Earth"
        },
        {
            "close_approach_date": "2004-09-18",
            "close_approach_date_full": "2004-Sep-18 20:48",
            "epoch_date_close_approach": 1095540480000,
            "relative_velocity": {
                "kilometers_per_second": "19.7661505426",
                "kilometers_per_hour": "71158.1419533452",
                "miles_per_hour": "44214.9021487328"
            },
            "miss_distance": {
                "astronomical": "0.4771472446",
                "lunar": "185.6102781494",
                "kilometers": "71380211.468529002",
                "miles": "44353606.7024721476"
            },
            "orbiting_body": "Earth"
        }
    ],
    "orbital_data": {
        "orbit_id": "15",
        "orbit_determination_date": "2017-04-06 09:16:16",
        "first_observation_date": "2001-08-04",
        "last_observation_date": "2001-09-30",
        "data_arc_in_days": 57,
        "observations_used": 41,
        "orbit_uncertainty": "6",
        "minimum_orbit_intersection": ".0739304",
        "jupiter_tisserand_invariant": "3.567",
        "epoch_osculation": "2459000.5",
        "eccentricity": ".498618390660693",
        "semi_major_axis": "2.106817833343408",
        "inclination": "5.784963947739857",
        "ascending_node_longitude": "260.7281406252189",
        "orbital_period": "1116.963304747539",
        "perihelion_distance": "1.05631971586647",
        "perihelion_argument": "44.92737472081313",
        "aphelion_distance": "3.157315950820346",
        "perihelion_time": "2458826.855324629475",
        "mean_anomaly": "55.96610279647304",
        "mean_motion": ".322302441333441",
        "equinox": "J2000",
        "orbit_class": {
            "orbit_class_type": "AMO",
            "orbit_class_description": "Near-Earth asteroid orbits similar to that of 1221 Amor",
            "orbit_class_range": "1.017 AU < q (perihelion) < 1.3 AU"
        }
    },
    "is_sentry_object": false
}